NORAD_CAT_ID,OBJECT_NAME,OBJECT_TYPE,EPOCH,MEAN_MOTION,ECCENTRICITY,INCLINATION,RA_OF_ASC_NODE,ARG_OF_PERICENTER,MEAN_ANOMALY,BSTAR,MEAN_MOTION_DOT,MEAN_MOTION_DDOT,TLE_LINE0,TLE_LINE1,TLE_LINE2,SEMIMAJOR_AXIS,PERIOD,APOGEE,PERIGEE,DECAYED
54060.0,STARLINK-5169,PAYLOAD,2023-09-21 16:49:35,15.10496631,0.0001218,53.2182,34.5515,104.4621,255.6507,0.0009313,0.00015253,0.0,0 STARLINK-5169,1 54060U 22136K   23264.70110002  .00015253  00000-0  93130-3 0  9992,2 54060  53.2182  34.5515 0001218 104.4621 255.6507 15.10496631 51878,6912.821,95.333,535.528,533.844,0.0
54060.0,STARLINK-5169,PAYLOAD,2023-09-22 02:21:16,15.10494374,0.0001184,53.2167,32.7673,56.9074,303.2033,0.0005352,8.633e-05,0.0,0 STARLINK-5169,1 54060U 22136K   23265.09810843  .00008633  00000-0  53520-3 0  9998,2 54060  53.2167  32.7673 0001184  56.9074 303.2033 15.10494374 51934,6912.828,95.333,535.512,533.875,0.0
54060.0,STARLINK-5169,PAYLOAD,2023-09-22 13:28:14,15.10492549,0.0001383,53.2179,30.6798,103.2106,256.9041,0.00049622,7.981e-05,0.0,0 STARLINK-5169,1 54060U 22136K   23265.56128459  .00007981  00000-0  49622-3 0  9998,2 54060  53.2179  30.6798 0001383 103.2106 256.9041 15.10492549 51525,6912.834,95.333,535.655,533.743,0.0
54060.0,STARLINK-5169,PAYLOAD,2023-09-23 11:42:12,15.10482437,0.0001215,53.2176,26.512,77.0307,283.0821,0.00026579,4.136e-05,0.0,0 STARLINK-5169,1 54060U 22136K   23266.48764017  .00004136  00000-0  26579-3 0  9991,2 54060  53.2176  26.5120 0001215  77.0307 283.0821 15.10482437 52141,6912.865,95.334,535.57,533.89,0.0
54060.0,STARLINK-5169,PAYLOAD,2023-09-23 13:17:28,15.10485049,0.0001245,53.2177,26.2144,75.0333,285.0797,0.00020578,3.136e-05,0.0,0 STARLINK-5169,1 54060U 22136K   23266.55380743  .00003136  00000-0  20578-3 0  9991,2 54060  53.2177  26.2144 0001245  75.0333 285.0797 15.10485049 51678,6912.857,95.334,535.582,533.861,0.0
54060.0,STARLINK-5169,PAYLOAD,2023-09-24 08:20:52,15.10474346,0.0001199,53.2181,22.6409,69.2571,290.855,6.967e-05,8.67e-06,0.0,0 STARLINK-5169,1 54060U 22136K   23267.34782920  .00000867  00000-0  69670-4 0  9997,2 54060  53.2181  22.6409 0001199  69.2571 290.8550 15.10474346 52270,6912.889,95.334,535.583,533.925,0.0
54060.0,STARLINK-5169,PAYLOAD,2023-09-24 13:06:43,15.10481142,0.0001329,53.2178,21.7462,89.872,270.2426,0.00014434,2.111e-05,0.0,0 STARLINK-5169,1 54060U 22136K   23267.54633260  .00002111  00000-0  14434-3 0  9992,2 54060  53.2178  21.7462 0001329  89.8720 270.2426 15.10481142 51820,6912.869,95.334,535.652,533.815,0.0
54060.0,STARLINK-5169,PAYLOAD,2023-09-24 14:41:59,15.1048465,0.0001262,53.2177,21.4475,91.0366,269.0771,0.00014611,2.141e-05,0.0,0 STARLINK-5169,1 54060U 22136K   23267.61249780  .00002141  00000-0  14611-3 0  9990,2 54060  53.2177  21.4475 0001262  91.0366 269.0771 15.10484650 52318,6912.858,95.334,535.595,533.851,0.0
54060.0,STARLINK-5169,PAYLOAD,2023-09-25 08:10:06,15.10479382,0.0001279,53.2179,18.1741,90.2904,269.8235,0.00010974,1.535e-05,0.0,0 STARLINK-5169,1 54060U 22136K   23268.34034992  .00001535  00000-0  10974-3 0  9992,2 54060  53.2179  18.1741 0001279  90.2904 269.8235 15.10479382 52427,6912.874,95.334,535.623,533.855,0.0
54060.0,STARLINK-5169,PAYLOAD,2023-09-25 12:55:56,15.10492302,0.0001364,53.2185,17.2789,100.982,259.1326,0.00025203,3.907e-05,0.0,0 STARLINK-5169,1 54060U 22136K   23268.53884719  .00003907  00000-0  25203-3 0  9999,2 54060  53.2185  17.2789 0001364 100.9820 259.1326 15.10492302 51976,6912.835,95.333,535.642,533.757,0.0
54060.0,STARLINK-5169,PAYLOAD,2023-09-25 14:31:13,15.10496066,0.0001217,53.2178,16.9819,90.8747,269.2385,0.00032812,5.177e-05,0.0,0 STARLINK-5169,1 54060U 22136K   23268.60501453  .00005177  00000-0  32812-3 0  9993,2 54060  53.2178  16.9819 0001217  90.8747 269.2385 15.10496066 52463,6912.823,95.333,535.529,533.847,0.0
54060.0,STARLINK-5169,PAYLOAD,2023-09-26 11:09:54,15.10467459,0.0001363,53.2181,13.11,78.9588,281.1558,-6.6112e-05,-1.393e-05,0.0,0 STARLINK-5169,1 54060U 22136K   23269.46521497 -.00001393  00000-0 -66112-4 0  9997,2 54060  53.2181  13.1100 0001363  78.9588 281.1558 15.10467459 52594,6912.91,95.335,535.718,533.833,0.0
54060.0,STARLINK-5169,PAYLOAD,2023-09-26 14:20:28,15.10468094,0.0001423,53.2185,12.5141,75.5452,284.5699,-4.3827e-05,-1.022e-05,0.0,0 STARLINK-5169,1 54060U 22136K   23269.59755221 -.00001022  00000-0 -43827-4 0  9992,2 54060  53.2185  12.5141 0001423  75.5452 284.5699 15.10468094 52135,6912.908,95.335,535.757,533.79,0.0
54060.0,STARLINK-5169,PAYLOAD,2023-09-27 12:34:25,15.10482668,0.0001504,53.218,8.345,77.7473,282.3689,0.00019809,3.007e-05,0.0,0 STARLINK-5169,1 54060U 22136K   23270.52390397  .00003007  00000-0  19809-3 0  9991,2 54060  53.2180   8.3450 0001504  77.7473 282.3689 15.10482668 52276,6912.864,95.334,535.769,533.689,0.0
54060.0,STARLINK-5169,PAYLOAD,2023-09-27 14:09:41,15.10491956,0.0001319,53.2177,8.0487,81.1079,279.0064,0.00038493,6.124e-05,0.0,0 STARLINK-5169,1 54060U 22136K   23270.59006691  .00006124  00000-0  38493-3 0  9992,2 54060  53.2177   8.0487 0001319  81.1079 279.0064 15.10491956 52768,6912.836,95.333,535.612,533.789,0.0
54060.0,STARLINK-5169,PAYLOAD,2023-09-28 12:23:39,15.1047925,0.0001756,53.2184,3.8776,63.9178,296.1995,0.0001835,2.764e-05,0.0,0 STARLINK-5169,1 54060U 22136K   23271.51643041  .00002764  00000-0  18350-3 0  9997,2 54060  53.2184   3.8776 0001756  63.9178 296.1995 15.10479250 52905,6912.874,95.334,535.953,533.525,0.0
54060.0,STARLINK-5169,PAYLOAD,2023-09-28 13:58:56,15.10483308,0.0001779,53.2189,3.5789,64.0315,296.0861,0.00026093,4.054e-05,0.0,0 STARLINK-5169,1 54060U 22136K   23271.58259742  .00004054  00000-0  26093-3 0  9992,2 54060  53.2189   3.5789 0001779  64.0315 296.0861 15.10483308 52439,6912.862,95.334,535.957,533.497,0.0
54060.0,STARLINK-5169,PAYLOAD,2023-09-28 15:34:13,15.1048672,0.0001677,53.2188,3.2804,68.0154,292.1017,0.00031506,4.958e-05,0.0,0 STARLINK-5169,1 54060U 22136K   23271.64876382  .00004958  00000-0  31506-3 0  9992,2 54060  53.2188   3.2804 0001677  68.0154 292.1017 15.10486720 52447,6912.852,95.334,535.876,533.557,0.0
54060.0,STARLINK-5169,PAYLOAD,2023-09-29 12:12:53,15.10480529,0.0001555,53.2178,359.4148,95.3671,264.7499,0.00016531,2.461e-05,0.0,0 STARLINK-5169,1 54060U 22136K   23272.50894937  .00002461  00000-0  16531-3 0  9992,2 54060  53.2178 359.4148 0001555  95.3671 264.7499 15.10480529 52579,6912.87,95.334,535.81,533.661,0.0
54060.0,STARLINK-5169,PAYLOAD,2023-09-30 10:26:50,15.10492287,0.0001278,53.2168,355.247,78.9052,281.2085,0.00040011,6.377e-05,0.0,0 STARLINK-5169,1 54060U 22136K   23273.43530105  .00006377  00000-0  40011-3 0  9999,2 54060  53.2168 355.2470 0001278  78.9052 281.2085 15.10492287 53190,6912.835,95.333,535.583,533.816,0.0
54060.0,STARLINK-5169,PAYLOAD,2023-10-01 11:51:19,15.10510792,0.0001503,53.2173,350.4791,86.31,273.8064,0.00070073,0.00011403,0.0,0 STARLINK-5169,1 54060U 22136K   23274.49397692  .00011403  00000-0  70073-3 0  9995,2 54060  53.2173 350.4791 0001503  86.3100 273.8064 15.10510792 53351,6912.778,95.332,535.682,533.604,0.0
54060.0,STARLINK-5169,PAYLOAD,2023-10-01 15:01:53,15.10516018,0.0001468,53.2174,349.8829,85.3857,274.7303,0.0010748,0.00017664,0.0,0 STARLINK-5169,1 54060U 22136K   23274.62630890  .00017664  00000-0  10748-2 0  9997,2 54060  53.2174 349.8829 0001468  85.3857 274.7303 15.10516018 52895,6912.762,95.332,535.642,533.612,0.0
54060.0,STARLINK-5169,PAYLOAD,2023-10-02 11:40:34,15.10459309,0.0001339,53.2178,346.0115,94.9512,265.1634,-0.00018357,-3.346e-05,0.0,0 STARLINK-5169,1 54060U 22136K   23275.48651125 -.00003346  00000-0 -18357-3 0  9995,2 54060  53.2178 346.0115 0001339  94.9512 265.1634 15.10459309 53506,6912.935,95.335,535.726,533.875,0.0
54060.0,STARLINK-5169,PAYLOAD,2023-10-03 11:29:49,15.10492465,0.0001434,53.2171,341.547,96.7823,263.3333,0.0015288,0.0002526,0.0,0 STARLINK-5169,1 54060U 22136K   23276.47904163  .00025260  00000-0  15288-2 0  9994,2 54060  53.2171 341.5470 0001434  96.7823 263.3333 15.10492465 53656,6912.834,95.333,535.69,533.708,0.0
54060.0,STARLINK-5169,PAYLOAD,2023-10-04 04:57:55,15.1048915,0.0001485,53.2175,338.2708,90.9744,269.1419,0.00070716,0.00011503,0.0,0 STARLINK-5169,1 54060U 22136K   23277.20689239  .00011503  00000-0  70716-3 0  9993,2 54060  53.2175 338.2708 0001485  90.9744 269.1419 15.10489150 53769,6912.844,95.333,535.736,533.683,0.0
54060.0,STARLINK-5169,PAYLOAD,2023-10-04 11:19:02,15.10496192,0.000141,53.2175,337.08,95.5623,264.5531,0.00085056,0.00013903,0.0,0 STARLINK-5169,1 54060U 22136K   23277.47156236  .00013903  00000-0  85056-3 0  9997,2 54060  53.2175 337.0800 0001410  95.5623 264.5531 15.10496192 53324,6912.823,95.333,535.662,533.713,0.0
54060.0,STARLINK-5169,PAYLOAD,2023-10-04 20:50:44,15.1049416,0.0001428,53.2168,335.2923,88.0763,272.0393,0.00064227,0.00010421,0.0,0 STARLINK-5169,1 54060U 22136K   23277.86856960  .00010421  00000-0  64227-3 0  9990,2 54060  53.2168 335.2923 0001428  88.0763 272.0393 15.10494160 53382,6912.829,95.333,535.681,533.707,0.0
54060.0,STARLINK-5169,PAYLOAD,2023-10-05 11:08:16,15.10486839,0.000157,53.2173,332.6133,93.4551,266.6621,0.00079452,0.00012962,0.0,0 STARLINK-5169,1 54060U 22136K   23278.46408506  .00012962  00000-0  79452-3 0  9994,2 54060  53.2173 332.6133 0001570  93.4551 266.6621 15.10486839 53955,6912.851,95.334,535.802,533.631,0.0
54060.0,STARLINK-5169,PAYLOAD,2023-10-05 12:43:33,15.10496013,0.0001552,53.2171,332.3151,95.1301,264.9869,0.0011364,0.00018686,0.0,0 STARLINK-5169,1 54060U 22136K   23278.53025172  .00018686  00000-0  11364-2 0  9992,2 54060  53.2171 332.3151 0001552  95.1301 264.9869 15.10496013 53480,6912.823,95.333,535.761,533.615,0.0
54060.0,STARLINK-5169,PAYLOAD,2023-10-05 20:39:58,15.10481244,0.0001276,53.2156,330.8218,90.282,269.8319,0.00072039,0.00011722,0.0,0 STARLINK-5169,1 54060U 22136K   23278.86109480  .00011722  00000-0  72039-3 0  9994,2 54060  53.2156 330.8218 0001276  90.2820 269.8319 15.10481244 54019,6912.868,95.334,535.615,533.851,0.0
